OBJECT_NAME,OBJECT_ID,EPOCH,MEAN_MOTION,ECCENTRICITY,INCLINATION,RA_OF_ASC_NODE,ARG_OF_PERICENTER,MEAN_ANOMALY,EPHEMERIS_TYPE,CLASSIFICATION_TYPE,NORAD_CAT_ID,ELEMENT_SET_NO,REV_AT_EPOCH,BSTAR,MEAN_MOTION_DOT,MEAN_MOTION_DDOT
IRIDIUM 156,2018-061H,2026-07-23T01:09:26.403264,14.34217897,.00021814,86.3936,41.7268,93.2067,266.9379,0,U,43576,999,41851,.50260547E-4,.161E-5,0
IRIDIUM 164,2018-061J,2026-07-23T10:44:50.483328,14.34217747,.0002314,86.3938,41.6004,88.0685,272.0776,0,U,43577,999,41861,.22525E-5,.26E-6,0
IRIDIUM 159,2018-061K,2026-07-23T01:36:50.428512,14.34217834,.00020815,86.3936,41.6958,87.2677,272.8757,0,U,43578,999,41852,.11172417E-4,.51E-6,0
IRIDIUM 180,2019-002A,2026-07-23T08:17:58.910208,14.34218621,.0002154,86.4000,338.4837,91.5999,268.5444,0,U,43922,999,39417,.53362E-4,.169E-5,0
IRIDIUM 176,2019-002B,2026-07-23T07:37:48.389088,14.72257327,.0002343,86.6121,338.4337,91.9206,268.2279,0,U,43923,999,40456,.10558E-3,.69E-5,0
IRIDIUM 168,2019-002C,2026-07-23T08:08:50.860320,14.34219318,.0002193,86.4002,338.5645,91.8841,268.2606,0,U,43924,999,39415,.7168E-4,.221E-5,0
IRIDIUM 173,2019-002D,2026-07-23T14:32:26.938176,14.34217396,.0002038,86.3998,338.3410,93.2260,266.9169,0,U,43925,999,39417,-.17901E-4,-.3E-6,0
IRIDIUM 169,2019-002E,2026-07-23T10:06:33.170400,14.38601957,.0002131,86.4230,10.0404,104.4154,255.7281,0,U,43926,999,39543,.83648E-4,.276E-5,0
IRIDIUM 172,2019-002F,2026-07-23T19:24:42.904224,14.34217706,.0002075,86.3998,338.2643,92.3495,267.7938,0,U,43927,999,39421,-.67166E-5,.1E-7,0
IRIDIUM 175,2019-002G,2026-07-23T12:39:18.112608,14.43630311,.000558,86.4502,275.3312,99.2968,260.8865,0,U,43928,999,40422,.61766E-4,.23E-5,0
IRIDIUM 171,2019-002H,2026-07-23T17:16:50.935008,14.34218765,.0002287,86.4010,338.6112,95.0648,265.0809,0,U,43929,999,39419,.61988E-4,.193E-5,0
IRIDIUM 170,2019-002J,2026-07-23T09:24:33.558912,14.72257955,.0002189,86.6119,338.4048,89.9785,270.1683,0,U,43930,999,40458,.10412E-3,.681E-5,0
IRIDIUM 167,2019-002K,2026-07-23T17:07:42.943008,14.34218003,.0002414,86.4000,338.3262,98.3787,261.7683,0,U,43931,999,39419,.57172E-4,.18E-5,0
IRIDIUM 181,2023-068S,2026-07-23T07:06:49.048992,14.43310115,.0002315,86.4474,41.6886,83.4434,276.7031,0,U,56726,999,16764,.66654E-4,.245E-5,0
IRIDIUM 177,2023-068T,2026-07-23T18:19:33.971232,14.80032117,.0002265,86.1986,311.4280,98.7151,261.4327,0,U,56727,999,17177,.82404E-4,.65E-5,0
IRIDIUM 174,2023-068U,2026-07-23T17:15:58.900608,14.72253717,.0001909,86.6126,338.4188,95.1806,264.9629,0,U,56728,999,17139,.97262E-4,.638E-5,0
IRIDIUM 178,2023-068V,2026-07-23T13:11:43.050048,14.80023267,.0002284,86.6543,10.1626,92.2650,267.8833,0,U,56729,999,17174,.96895E-4,.759E-5,0
IRIDIUM 179,2023-068W,2026-07-23T11:26:38.887872,14.80026009,.0002408,86.6772,19.2790,94.0972,266.0525,0,U,56730,999,17173,.36245E-4,.3E-5,0
